[{"OBJECT_NAME":"STARLINK-1413","OBJECT_ID":"2020-035AJ","EPOCH":"2026-03-09T23:07:21.119232","MEAN_MOTION":15.30196842,"ECCENTRICITY":0.00013861,"INCLINATION":53.1621,"RA_OF_ASC_NODE":48.3049,"ARG_OF_PERICENTER":76.6572,"MEAN_ANOMALY":283.4583,"EPHEMERIS_TYPE":0,"CLASSIFICATION_TYPE":"U","NORAD_CAT_ID":45689,"ELEMENT_SET_NO":999,"REV_AT_EPOCH":31893,"BSTAR":1.4614986e-5,"MEAN_MOTION_DOT":7.4e-7,"MEAN_MOTION_DDOT":0},{"OBJECT_NAME":"JILIN-1 GAOFEN 03D50","OBJECT_ID":"2022-167J","EPOCH":"2026-03-09T22:35:59.947584","MEAN_MOTION":15.32279726,"ECCENTRICITY":0.00065764,"INCLINATION":97.6731,"RA_OF_ASC_NODE":232.9458,"ARG_OF_PERICENTER":101.1473,"MEAN_ANOMALY":259.0507,"EPHEMERIS_TYPE":0,"CLASSIFICATION_TYPE":"U","NORAD_CAT_ID":54690,"ELEMENT_SET_NO":999,"REV_AT_EPOCH":18014,"BSTAR":0.00049467973,"MEAN_MOTION_DOT":0.00015359,"MEAN_MOTION_DDOT":0}]
